[{"OBJECT_NAME":"CELESTIS-17 & SHERPA-FX1","OBJECT_ID":"2021-006CB","EPOCH":"2026-03-09T15:26:05.078112","MEAN_MOTION":15.30994801,"ECCENTRICITY":0.000663,"INCLINATION":97.2397,"RA_OF_ASC_NODE":112.1052,"ARG_OF_PERICENTER":178.1385,"MEAN_ANOMALY":181.9882,"EPHEMERIS_TYPE":0,"CLASSIFICATION_TYPE":"U","NORAD_CAT_ID":47486,"ELEMENT_SET_NO":999,"REV_AT_EPOCH":28406,"BSTAR":0.00024301,"MEAN_MOTION_DOT":7.207e-5,"MEAN_MOTION_DDOT":0},{"OBJECT_NAME":"STARLINK-34687","OBJECT_ID":"2025-157F","EPOCH":"2026-03-09T04:10:12.081216","MEAN_MOTION":15.301956,"ECCENTRICITY":0.00010684,"INCLINATION":53.1608,"RA_OF_ASC_NODE":348.1452,"ARG_OF_PERICENTER":88.0554,"MEAN_ANOMALY":272.0569,"EPHEMERIS_TYPE":0,"CLASSIFICATION_TYPE":"U","NORAD_CAT_ID":64909,"ELEMENT_SET_NO":999,"REV_AT_EPOCH":3599,"BSTAR":0.0003065117,"MEAN_MOTION_DOT":8.728e-5,"MEAN_MOTION_DDOT":0}]
